start=new Date('2022-07-04T00:00:00.000Z').valueOf();
sats=[{"TLE_LINE1":"1 51892U 22022AS  22184.91667824 -.00065638  00000-0 -41433-2 0  9990","GP_ID":"207358099","MEAN_ANOMALY":"163.4491","ARG_OF_PERICENTER":"39.8347","COUNTRY_CODE":"US","MEAN_ELEMENT_THEORY":"SGP4","SEMIMAJOR_AXIS":"6917.865","MEAN_MOTION":"15.08845086","EPOCH":"2022-07-03T22:00:00.999936","INCLINATION":"53.2189","APOAPSIS":"541.025","MEAN_MOTION_DOT":"-0.00065638","NORAD_CAT_ID":"51892","CENTER_NAME":"EARTH","LAUNCH_DATE":"2022-03-03","PERIAPSIS":"538.435","SITE":"AFETR","OBJECT_TYPE":"PAYLOAD","DECAY_DATE":null,"RCS_SIZE":"LARGE","MEAN_MOTION_DDOT":"0.0000000000000","PERIOD":"95.437","TIME_SYSTEM":"UTC","ELEMENT_SET_NO":"999","TLE_LINE2":"2 51892  53.2189 276.0331 0001872  39.8347 163.4491 15.08845086  1306","RA_OF_ASC_NODE":"276.0331","REV_AT_EPOCH":"130","BSTAR":"-0.00414330000000","ECCENTRICITY":"0.00018720","OBJECT_NAME":"STARLINK-3587","OBJECT_ID":"2022-022AS","EPHEMERIS_TYPE":"0","CLASSIFICATION_TYPE":"U","REF_FRAME":"TEME","FILE":"3507292"},{"TIME_SYSTEM":"UTC","BSTAR":"-0.00337890000000","ECCENTRICITY":"0.00014090","ELEMENT_SET_NO":"999","TLE_LINE2":"2 51893  53.2159 276.0247 0001409  50.5653 232.7272 15.08846294  1305","REV_AT_EPOCH":"130","RA_OF_ASC_NODE":"276.0247","CLASSIFICATION_TYPE":"U","EPHEMERIS_TYPE":"0","OBJECT_NAME":"STARLINK-3579","OBJECT_ID":"2022-022AT","FILE":"3507292","REF_FRAME":"TEME","LAUNCH_DATE":"2022-03-03","PERIAPSIS":"538.751","OBJECT_TYPE":"PAYLOAD","SITE":"AFETR","RCS_SIZE":"LARGE","MEAN_MOTION_DDOT":"0.0000000000000","PERIOD":"95.437","DECAY_DATE":null,"SEMIMAJOR_AXIS":"6917.861","MEAN_ELEMENT_THEORY":"SGP4","APOAPSIS":"540.701","INCLINATION":"53.2159","EPOCH":"2022-07-03T22:00:00.999936","MEAN_MOTION":"15.08846294","MEAN_MOTION_DOT":"-0.00053672","CENTER_NAME":"EARTH","NORAD_CAT_ID":"51893","GP_ID":"207358347","TLE_LINE1":"1 51893U 22022AT  22184.91667824 -.00053672  00000-0 -33789-2 0  9991","MEAN_ANOMALY":"232.7272","COUNTRY_CODE":"US","ARG_OF_PERICENTER":"50.5653"},{"MEAN_ANOMALY":"217.7083","ARG_OF_PERICENTER":"45.5886","COUNTRY_CODE":"US","TLE_LINE1":"1 51894U 22022AU  22184.91667824 -.00084823  00000-0 -53728-2 0  9999","GP_ID":"207359084","MEAN_MOTION_DOT":"-0.00084823","NORAD_CAT_ID":"51894","CENTER_NAME":"EARTH","MEAN_ELEMENT_THEORY":"SGP4","SEMIMAJOR_AXIS":"6917.839","MEAN_MOTION":"15.08853679","EPOCH":"2022-07-03T22:00:00.999936","INCLINATION":"53.2166","APOAPSIS":"540.887","SITE":"AFETR","OBJECT_TYPE":"PAYLOAD","DECAY_DATE":null,"RCS_SIZE":"LARGE","PERIOD":"95.437","MEAN_MOTION_DDOT":"0.0000000000000","LAUNCH_DATE":"2022-03-03","PERIAPSIS":"538.521","OBJECT_NAME":"STARLINK-3595","EPHEMERIS_TYPE":"0","OBJECT_ID":"2022-022AU","CLASSIFICATION_TYPE":"U","REF_FRAME":"TEME","FILE":"3507292","TIME_SYSTEM":"UTC","REV_AT_EPOCH":"130","TLE_LINE2":"2 51894  53.2166 276.0262 0001710  45.5886 217.7083 15.08853679  1306","RA_OF_ASC_NODE":"276.0262","ELEMENT_SET_NO":"999","ECCENTRICITY":"0.00017100","BSTAR":"-0.00537280000000"},{"NORAD_CAT_ID":"51895","CENTER_NAME":"EARTH","MEAN_MOTION_DOT":"-0.00091897","MEAN_MOTION":"15.08860012","EPOCH":"2022-07-03T22:00:00.999936","INCLINATION":"53.2153","APOAPSIS":"540.899","MEAN_ELEMENT_THEORY":"SGP4","SEMIMAJOR_AXIS":"6917.819","ARG_OF_PERICENTER":"45.7728","COUNTRY_CODE":"US","MEAN_ANOMALY":"257.5124","TLE_LINE1":"1 51895U 22022AV  22184.91667824 -.00091897  00000-0 -58271-2 0  9997","GP_ID":"207357848","REF_FRAME":"TEME","FILE":"3507292","OBJECT_NAME":"STARLINK-3594","OBJECT_ID":"2022-022AV","EPHEMERIS_TYPE":"0","CLASSIFICATION_TYPE":"U","TLE_LINE2":"2 51895  53.2153 276.0245 0001756  45.7728 257.5124 15.08860012  1308","ELEMENT_SET_NO":"999","RA_OF_ASC_NODE":"276.0245","REV_AT_EPOCH":"130","ECCENTRICITY":"0.00017560","BSTAR":"-0.00582710000000","TIME_SYSTEM":"UTC","DECAY_DATE":null,"PERIOD":"95.436","RCS_SIZE":"LARGE","MEAN_MOTION_DDOT":"0.0000000000000","SITE":"AFETR","OBJECT_TYPE":"PAYLOAD","PERIAPSIS":"538.469","LAUNCH_DATE":"2022-03-03"},{"TLE_LINE1":"1 51896U 22022AW  22184.91667824 -.00078771  00000-0 -49835-2 0  9990","GP_ID":"207358599","ARG_OF_PERICENTER":"45.4015","COUNTRY_CODE":"US","MEAN_ANOMALY":"252.6730","MEAN_MOTION":"15.08856805","EPOCH":"2022-07-03T22:00:00.999936","INCLINATION":"53.2150","APOAPSIS":"540.877","MEAN_ELEMENT_THEORY":"SGP4","SEMIMAJOR_AXIS":"6917.829","NORAD_CAT_ID":"51896","CENTER_NAME":"EARTH","MEAN_MOTION_DOT":"-0.00078771","PERIAPSIS":"538.511","LAUNCH_DATE":"2022-03-03","DECAY_DATE":null,"MEAN_MOTION_DDOT":"0.0000000000000","RCS_SIZE":"LARGE","PERIOD":"95.436","SITE":"AFETR","OBJECT_TYPE":"PAYLOAD","TLE_LINE2":"2 51896  53.2150 276.0245 0001710  45.4015 252.6730 15.08856805  1306","ELEMENT_SET_NO":"999","RA_OF_ASC_NODE":"276.0245","REV_AT_EPOCH":"130","ECCENTRICITY":"0.00017100","BSTAR":"-0.00498350000000","TIME_SYSTEM":"UTC","REF_FRAME":"TEME","FILE":"3507292","EPHEMERIS_TYPE":"0","OBJECT_ID":"2022-022AW","OBJECT_NAME":"STARLINK-3593","CLASSIFICATION_TYPE":"U"},{"GP_ID":"207358847","TLE_LINE1":"1 51897U 22022AX  22184.91667824 -.00052298  00000-0 -32920-2 0  9994","ARG_OF_PERICENTER":"63.8760","COUNTRY_CODE":"US","MEAN_ANOMALY":"259.4010","INCLINATION":"53.2159","APOAPSIS":"540.773","MEAN_MOTION":"15.08838399","EPOCH":"2022-07-03T22:00:00.999936","MEAN_ELEMENT_THEORY":"SGP4","SEMIMAJOR_AXIS":"6917.885","CENTER_NAME":"EARTH","NORAD_CAT_ID":"51897","MEAN_MOTION_DOT":"-0.00052298","PERIAPSIS":"538.727","LAUNCH_DATE":"2022-03-03","DECAY_DATE":null,"MEAN_MOTION_DDOT":"0.0000000000000","RCS_SIZE":"LARGE","PERIOD":"95.438","SITE":"AFETR","OBJECT_TYPE":"PAYLOAD","ECCENTRICITY":"0.00014790","BSTAR":"-0.00329200000000","RA_OF_ASC_NODE":"276.0252","TLE_LINE2":"2 51897  53.2159 276.0252 0001479  63.8760 259.4010 15.08838399  1301","REV_AT_EPOCH":"130","ELEMENT_SET_NO":"999","TIME_SYSTEM":"UTC","FILE":"3507292","REF_FRAME":"TEME","CLASSIFICATION_TYPE":"U","OBJECT_NAME":"STARLINK-3598","EPHEMERIS_TYPE":"0","OBJECT_ID":"2022-022AX"},{"ARG_OF_PERICENTER":"69.4655","COUNTRY_CODE":"US","MEAN_ANOMALY":"273.8411","GP_ID":"207358585","TLE_LINE1":"1 51898U 22022AY  22184.91667824 -.00076576  00000-0 -48447-2 0  9991","NORAD_CAT_ID":"51898","CENTER_NAME":"EARTH","MEAN_MOTION_DOT":"-0.00076576","MEAN_MOTION":"15.08841815","EPOCH":"2022-07-03T22:00:00.999936","INCLINATION":"53.2155","APOAPSIS":"540.759","MEAN_ELEMENT_THEORY":"SGP4","SEMIMAJOR_AXIS":"6917.875","DECAY_DATE":null,"PERIOD":"95.437","RCS_SIZE":"LARGE","MEAN_MOTION_DDOT":"0.0000000000000","SITE":"AFETR","OBJECT_TYPE":"PAYLOAD","PERIAPSIS":"538.721","LAUNCH_DATE":"2022-03-03","REF_FRAME":"TEME","FILE":"3507292","OBJECT_ID":"2022-022AY","OBJECT_NAME":"STARLINK-3597","EPHEMERIS_TYPE":"0","CLASSIFICATION_TYPE":"U","RA_OF_ASC_NODE":"276.0251","TLE_LINE2":"2 51898  53.2155 276.0251 0001473  69.4655 273.8411 15.08841815  1308","ELEMENT_SET_NO":"999","REV_AT_EPOCH":"130","BSTAR":"-0.00484470000000","ECCENTRICITY":"0.00014730","TIME_SYSTEM":"UTC"},{"GP_ID":"207358103","TLE_LINE1":"1 51956U 22025A   22184.91667824 -.00041969  00000-0 -26352-2 0  9998","ARG_OF_PERICENTER":"46.1597","COUNTRY_CODE":"US","MEAN_ANOMALY":"172.1671","MEAN_MOTION":"15.08826684","EPOCH":"2022-07-03T22:00:00.999936","INCLINATION":"53.2163","APOAPSIS":"541.086","MEAN_ELEMENT_THEORY":"SGP4","SEMIMAJOR_AXIS":"6917.921","NORAD_CAT_ID":"51956","CENTER_NAME":"EARTH","MEAN_MOTION_DOT":"-0.00041969","PERIAPSIS":"538.486","LAUNCH_DATE":"2022-03-09","DECAY_DATE":null,"PERIOD":"95.438","RCS_SIZE":"LARGE","MEAN_MOTION_DDOT":"0.0000000000000","SITE":"AFETR","OBJECT_TYPE":"PAYLOAD","TLE_LINE2":"2 51956  53.2163 306.0455 0001879  46.1597 172.1671 15.08826684  1305","REV_AT_EPOCH":"130","RA_OF_ASC_NODE":"306.0455","ELEMENT_SET_NO":"999","ECCENTRICITY":"0.00018790","BSTAR":"-0.00263520000000","TIME_SYSTEM":"UTC","REF_FRAME":"TEME","FILE":"3507292","EPHEMERIS_TYPE":"0","OBJECT_ID":"2022-025A","OBJECT_NAME":"STARLINK-3700","CLASSIFICATION_TYPE":"U"},{"PERIAPSIS":"538.621","LAUNCH_DATE":"2022-03-09","DECAY_DATE":null,"MEAN_MOTION_DDOT":"0.0000000000000","RCS_SIZE":"LARGE","PERIOD":"95.437","SITE":"AFETR","OBJECT_TYPE":"PAYLOAD","RA_OF_ASC_NODE":"306.0400","TLE_LINE2":"2 51957  53.2142 306.0400 0001603  50.2697 268.0404 15.08845115  1304","ELEMENT_SET_NO":"999","REV_AT_EPOCH":"130","ECCENTRICITY":"0.00016030","BSTAR":"-0.00473740000000","TIME_SYSTEM":"UTC","REF_FRAME":"TEME","FILE":"3507292","OBJECT_NAME":"STARLINK-3694","OBJECT_ID":"2022-025B","EPHEMERIS_TYPE":"0","CLASSIFICATION_TYPE":"U","GP_ID":"207358351","TLE_LINE1":"1 51957U 22025B   22184.91667824 -.00074911  00000-0 -47374-2 0  9999","ARG_OF_PERICENTER":"50.2697","COUNTRY_CODE":"US","MEAN_ANOMALY":"268.0404","MEAN_MOTION":"15.08845115","EPOCH":"2022-07-03T22:00:00.999936","INCLINATION":"53.2142","APOAPSIS":"540.839","MEAN_ELEMENT_THEORY":"SGP4","SEMIMAJOR_AXIS":"6917.865","NORAD_CAT_ID":"51957","CENTER_NAME":"EARTH","MEAN_MOTION_DOT":"-0.00074911"},{"TIME_SYSTEM":"UTC","BSTAR":"-0.00349990000000","ECCENTRICITY":"0.00018530","RA_OF_ASC_NODE":"306.0492","TLE_LINE2":"2 51958  53.2172 306.0492 0001853  37.7157 200.5764 15.08839145  1303","ELEMENT_SET_NO":"999","REV_AT_EPOCH":"130","CLASSIFICATION_TYPE":"U","OBJECT_NAME":"STARLINK-3692","EPHEMERIS_TYPE":"0","OBJECT_ID":"2022-025C","FILE":"3507292","REF_FRAME":"TEME","LAUNCH_DATE":"2022-03-09","PERIAPSIS":"538.466","OBJECT_TYPE":"PAYLOAD","SITE":"AFETR","RCS_SIZE":"LARGE","MEAN_MOTION_DDOT":"0.0000000000000","PERIOD":"95.438","DECAY_DATE":null,"SEMIMAJOR_AXIS":"6917.883","MEAN_ELEMENT_THEORY":"SGP4","APOAPSIS":"541.030","INCLINATION":"53.2172","EPOCH":"2022-07-03T22:00:00.999936","MEAN_MOTION":"15.08839145","MEAN_MOTION_DOT":"-0.00055559","CENTER_NAME":"EARTH","NORAD_CAT_ID":"51958","TLE_LINE1":"1 51958U 22025C   22184.91667824 -.00055559  00000-0 -34999-2 0  9996","GP_ID":"207359088","MEAN_ANOMALY":"200.5764","COUNTRY_CODE":"US","ARG_OF_PERICENTER":"37.7157"}];
